HAWK-12A                
1 64623U 25138C   26196.97432660  .00001902  00000+0  95534-4 0  9992
2 64623  97.4411 199.2793 0015096  43.7850 316.4579 15.18405603 58233
HAWK-13A                
1 67392U 26004AF  26196.97694517  .00002132  00000+0  10408-3 0  9994
2 67392  97.4444 195.4394 0004214 215.9904 144.1047 15.19361936 28136
HAWK-13C                
1 67393U 26004AG  26196.97679705  .00002088  00000+0  10202-3 0  9999
2 67393  97.4588 195.8651 0003997 220.2368 139.8571 15.19358393 28132
HAWK-13B                
1 67396U 26004AK  26196.97670699  .00002092  00000+0  10215-3 0  9994
2 67396  97.4529 195.6877 0005310 221.2401 138.8433 15.19360807 28137
HAWK-14B                
1 68436U 26067W   26196.88340547  .00002247  00000+0  11246-3 0  9992
2 68436  97.4563 154.9257 0001479 356.5941   3.5283 15.18433908 16291
HAWK-14C                
1 68441U 26067AB  26196.88350777  .00002274  00000+0  11377-3 0  9999
2 68441  97.4501 154.8055 0002533  22.2700 337.8644 15.18431690 16296
HAWK-14A                
1 68448U 26067AJ  26196.88362706  .00002290  00000+0  11454-3 0  9995
2 68448  97.4623 155.0526 0003179  13.0409 347.0907 15.18435384 16294
