{"fetched_at":"2026-07-16T06:42:58.427Z","source":"https://celestrak.org/NORAD/elements/gp.php?NAME=HAWK&FORMAT=JSON","constellation":"hawkeye-360","records":[{"OBJECT_NAME":"HAWK-12A","OBJECT_ID":"2025-138C","EPOCH":"2026-07-15T23:23:01.818240","CLASSIFICATION_TYPE":"U","MEAN_MOTION":15.18405603,"ECCENTRICITY":0.00150965,"INCLINATION":97.4411,"RA_OF_ASC_NODE":199.2793,"ARG_OF_PERICENTER":43.785,"MEAN_ANOMALY":316.4579,"EPHEMERIS_TYPE":0,"NORAD_CAT_ID":64623,"ELEMENT_SET_NO":999,"REV_AT_EPOCH":5823,"BSTAR":0.00009553353,"MEAN_MOTION_DOT":0.00001902,"MEAN_MOTION_DDOT":0},{"OBJECT_NAME":"HAWK-13A","OBJECT_ID":"2026-004AF","EPOCH":"2026-07-15T23:26:48.062688","CLASSIFICATION_TYPE":"U","MEAN_MOTION":15.19361936,"ECCENTRICITY":0.00042146,"INCLINATION":97.4444,"RA_OF_ASC_NODE":195.4394,"ARG_OF_PERICENTER":215.9904,"MEAN_ANOMALY":144.1047,"EPHEMERIS_TYPE":0,"NORAD_CAT_ID":67392,"ELEMENT_SET_NO":999,"REV_AT_EPOCH":2813,"BSTAR":0.00010407868,"MEAN_MOTION_DOT":0.00002132,"MEAN_MOTION_DDOT":0},{"OBJECT_NAME":"HAWK-13C","OBJECT_ID":"2026-004AG","EPOCH":"2026-07-15T23:26:35.265120","CLASSIFICATION_TYPE":"U","MEAN_MOTION":15.19358393,"ECCENTRICITY":0.0003997,"INCLINATION":97.4588,"RA_OF_ASC_NODE":195.8651,"ARG_OF_PERICENTER":220.2368,"MEAN_ANOMALY":139.8571,"EPHEMERIS_TYPE":0,"NORAD_CAT_ID":67393,"ELEMENT_SET_NO":999,"REV_AT_EPOCH":2813,"BSTAR":0.00010201532,"MEAN_MOTION_DOT":0.00002088,"MEAN_MOTION_DDOT":0},{"OBJECT_NAME":"HAWK-13B","OBJECT_ID":"2026-004AK","EPOCH":"2026-07-15T23:26:27.483936","CLASSIFICATION_TYPE":"U","MEAN_MOTION":15.19360807,"ECCENTRICITY":0.00053106,"INCLINATION":97.4529,"RA_OF_ASC_NODE":195.6877,"ARG_OF_PERICENTER":221.2401,"MEAN_ANOMALY":138.8433,"EPHEMERIS_TYPE":0,"NORAD_CAT_ID":67396,"ELEMENT_SET_NO":999,"REV_AT_EPOCH":2813,"BSTAR":0.00010214662,"MEAN_MOTION_DOT":0.00002092,"MEAN_MOTION_DDOT":0},{"OBJECT_NAME":"HAWK-14B","OBJECT_ID":"2026-067W","EPOCH":"2026-07-15T21:12:06.232608","CLASSIFICATION_TYPE":"U","MEAN_MOTION":15.18433908,"ECCENTRICITY":0.00014797,"INCLINATION":97.4563,"RA_OF_ASC_NODE":154.9257,"ARG_OF_PERICENTER":356.5941,"MEAN_ANOMALY":3.5283,"EPHEMERIS_TYPE":0,"NORAD_CAT_ID":68436,"ELEMENT_SET_NO":999,"REV_AT_EPOCH":1629,"BSTAR":0.0001124636,"MEAN_MOTION_DOT":0.00002247,"MEAN_MOTION_DDOT":0},{"OBJECT_NAME":"HAWK-14C","OBJECT_ID":"2026-067AB","EPOCH":"2026-07-15T21:12:15.071328","CLASSIFICATION_TYPE":"U","MEAN_MOTION":15.1843169,"ECCENTRICITY":0.00025336,"INCLINATION":97.4501,"RA_OF_ASC_NODE":154.8055,"ARG_OF_PERICENTER":22.27,"MEAN_ANOMALY":337.8644,"EPHEMERIS_TYPE":0,"NORAD_CAT_ID":68441,"ELEMENT_SET_NO":999,"REV_AT_EPOCH":1629,"BSTAR":0.00011376897,"MEAN_MOTION_DOT":0.00002274,"MEAN_MOTION_DDOT":0},{"OBJECT_NAME":"HAWK-14A","OBJECT_ID":"2026-067AJ","EPOCH":"2026-07-15T21:12:25.377984","CLASSIFICATION_TYPE":"U","MEAN_MOTION":15.18435384,"ECCENTRICITY":0.00031797,"INCLINATION":97.4623,"RA_OF_ASC_NODE":155.0526,"ARG_OF_PERICENTER":13.0409,"MEAN_ANOMALY":347.0907,"EPHEMERIS_TYPE":0,"NORAD_CAT_ID":68448,"ELEMENT_SET_NO":999,"REV_AT_EPOCH":1629,"BSTAR":0.00011453739,"MEAN_MOTION_DOT":0.0000229,"MEAN_MOTION_DDOT":0}]}
